2023-039C               
1 55975U 23039C   23105.30781727  .00017186  00000+0  81652-3 0  9991
2 55975  97.4170 255.5788 0011883 169.4921  34.9322 15.19224092  3612
2023-039D               
1 55976U 23039D   23106.20567878  .00009883  00000+0  46550-3 0  9994
2 55976  97.4184 256.4756 0011562 176.3036 286.2905 15.19662204  3756
COSMOS 2567             
1 55978U 23040A   23106.20769957  .00005389  00000+0  24180-3 0  9992
2 55978  97.6328   0.8669 0008541 222.5718 301.0469 15.21601061  3655
SL-4 R/B                
1 55979U 23040B   23106.22369419  .00067528  00000+0  86124-3 0  9993
2 55979  97.6413   1.8331 0104419 349.9371 125.8917 15.52696134  3714
2023-041A               
1 55981U 23041A   23105.75114111  .00306251  00000+0  56630-2 0  9998
2 55981  42.0139 123.6405 0011087 106.4426 253.7636 15.47096251  3454
2023-041B               
1 55982U 23041B   23106.13100990  .00029616  00000+0  75410-3 0  9997
2 55982  42.0156 122.1867 0004509  81.8922 278.2429 15.38964396  3500
2023-041C               
1 55983U 23041C   23105.47431971  .00029633  00000+0  74171-3 0  9992
2 55983  42.0156 125.9150 0006576  65.5655 294.5871 15.39476269  3404
STARLINK-5905           
1 55986U 23042A   23105.91668981 -.00907946  00000+0 -14148-1 0  9998
2 55986  43.0013  60.3667 0001435 251.6866  82.4666 15.55697758  1305
STARLINK-5915           
1 55987U 23042B   23105.91668981 -.00909650  00000+0 -14153-1 0  9999
2 55987  43.0015  60.3538 0001408 257.0338  82.5749 15.55743734  1308
STARLINK-5916           
1 55988U 23042C   23105.91668981 -.00909719  00000+0 -14171-1 0  9996
2 55988  43.0016  60.3636 0001403 258.3807  77.3311 15.55711967  1309
STARLINK-5947           
1 55989U 23042D   23105.91668981 -.00907744  00000+0 -14131-1 0  9999
2 55989  43.0013  60.3600 0001425 258.1869  79.0842 15.55723505  1307
STARLINK-5946           
1 55990U 23042E   23105.91668981 -.00905188  00000+0 -14098-1 0  9993
2 55990  43.0014  60.3657 0001473 256.7165  78.2165 15.55702748  1303
STARLINK-5948           
1 55991U 23042F   23106.00001157 -.00932078  00000+0 -14614-1 0  9993
2 55991  43.0010  59.8590 0001298 262.1679 186.1930 15.55604063  3868
STARLINK-5962           
1 55992U 23042G   23106.25001157 -.00871847  00000+0 -13855-1 0  9993
2 55992  43.0017  58.3945 0001359 268.0204 139.4779 15.55064785  3909
STARLINK-5969           
1 55993U 23042H   23105.91668981 -.00909032  00000+0 -14156-1 0  9993
2 55993  43.0016  60.3611 0001364 255.0995  81.3910 15.55718385  1307
STARLINK-5956           
1 55994U 23042J   23105.91668981 -.00904760  00000+0 -14067-1 0  9998
2 55994  43.0017  60.3522 0001454 256.9686  83.4190 15.55747957  1307
STARLINK-5957           
1 55995U 23042K   23105.91668981 -.00908753  00000+0 -14145-1 0  9992
2 55995  43.0011  60.3566 0001361 259.3628  78.6876 15.55730211  1302
STARLINK-5903           
1 55996U 23042L   23106.25001157 -.00872827  00000+0 -13852-1 0  9993
2 55996  43.0014  58.3820 0001447 275.0219 137.1977 15.55103075  3905
STARLINK-5904           
1 55997U 23042M   23106.25001157 -.00869798  00000+0 -13807-1 0  9997
2 55997  43.0015  58.3865 0001405 271.5019 139.1450 15.55088523  3907
STARLINK-5902           
1 55998U 23042N   23105.91668981 -.00905054  00000+0 -14052-1 0  9993
2 55998  43.0014  60.3406 0001436 256.1128  88.9481 15.55786233  1305
STARLINK-5901           
1 55999U 23042P   23105.91668981 -.00909617  00000+0 -14139-1 0  9999
2 55999  43.0016  60.3465 0001414 251.3588  91.3659 15.55769150  1300
STARLINK-5910           
1 56000U 23042Q   23105.91668981 -.00919704  00000+0 -14284-1 0  9992
2 56000  43.0018  60.3338 0001399 258.1220  90.0500 15.55820850  1301
STARLINK-5944           
1 56001U 23042R   23105.91668981 -.00916236  00000+0 -14236-1 0  9997
2 56001  43.0019  60.3388 0001396 258.2713  87.5652 15.55799723  1306
STARLINK-5799           
1 56002U 23042S   23105.91668981 -.00920761  00000+0 -14305-1 0  9993
2 56002  43.0019  60.3358 0001414 253.0101  94.3828 15.55815237  1309
STARLINK-5789           
1 56003U 23042T   23106.25001157 -.00870376  00000+0 -13807-1 0  9990
2 56003  43.0013  58.3811 0001313 267.9238 145.0805 15.55108798  3902
STARLINK-5787           
1 56004U 23042U   23105.91668981 -.00919593  00000+0 -14279-1 0  9996
2 56004  43.0024  60.3322 0001361 260.6671  88.2830 15.55826996  1304
STARLINK-5801           
1 56005U 23042V   23105.91668981 -.00919464  00000+0 -14287-1 0  9993
2 56005  43.0018  60.3355 0001344 274.3482  72.2665 15.55807987  1305
STARLINK-5794           
1 56006U 23042W   23105.91668981 -.00916742  00000+0 -14221-1 0  9998
2 56006  43.0017  60.3259 0001377 259.4684  91.8165 15.55844360  1300
STARLINK-5806           
1 56007U 23042X   23105.91668981 -.00919499  00000+0 -14274-1 0  9999
2 56007  43.0016  60.3289 0001374 257.4550  92.2733 15.55833237  1307
STARLINK-5803           
1 56008U 23042Y   23105.91668981 -.00920650  00000+0 -14283-1 0  9991
2 56008  43.0019  60.3240 0001373 258.2859  93.7765 15.55853220  1303
STARLINK-5964           
1 56009U 23042Z   23105.91668981 -.00919165  00000+0 -14265-1 0  9991
2 56009  43.0024  60.3286 0001373 259.7621  90.7446 15.55839443  1307
STARLINK-5968           
1 56010U 23042AA  23105.91668981 -.00919774  00000+0 -14265-1 0  9999
2 56010  43.0023  60.3230 0001375 259.5111  93.3296 15.55858941  1307
STARLINK-5936           
1 56011U 23042AB  23106.06890181  .00064057  00000+0  48822-3 0  9997
2 56011  43.0026  58.8486 0002792 293.8080  66.2495 15.71350777  3883
STARLINK-5940           
1 56012U 23042AC  23105.87842032  .00026887  00000+0  20763-3 0  9991
2 56012  43.0020  59.9997 0001065 271.2220  88.8526 15.71377399  3519
STARLINK-5941           
1 56013U 23042AD  23105.91668981 -.00918482  00000+0 -14240-1 0  9990
2 56013  43.0023  60.3210 0001392 256.8919  96.7271 15.55864348  1301
STARLINK-5942           
1 56014U 23042AE  23105.87810759  .00064958  00000+0  49406-3 0  9990
2 56014  43.0018  59.9978 0000965 232.9301 127.1479 15.71398230  3510
STARLINK-5939           
1 56015U 23042AF  23105.87831068  .00017393  00000+0  13567-3 0  9997
2 56015  43.0022  59.9997 0001729 280.0888  79.9785 15.71378177  3512
STARLINK-5943           
1 56016U 23042AG  23105.87747679  .00021409  00000+0  16622-3 0  9990
2 56016  43.0016  59.9926 0001178 266.1381  93.9352 15.71365409  3519
STARLINK-5934           
1 56017U 23042AH  23106.06858462  .00030463  00000+0  23477-3 0  9992
2 56017  43.0018  58.8456 0001815 258.9192 101.1472 15.71368519  3885
STARLINK-5945           
1 56018U 23042AJ  23105.17839603 -.00003178  00000+0 -20802-4 0  9995
2 56018  43.0019  64.2117 0001318 262.6842  97.3876 15.71355905  3748
STARLINK-5949           
1 56019U 23042AK  23106.06868857  .00027343  00000+0  21111-3 0  9999
2 56019  43.0019  58.8468 0001629 245.1781 114.8918 15.71373238  3886
STARLINK-5912           
1 56020U 23042AL  23106.00481096  .00025203  00000+0  19497-3 0  9998
2 56020  43.0021  59.2282 0001163 274.3037  85.7698 15.71365966  3870
STARLINK-5907           
1 56021U 23042AM  23106.06847504  .00032103  00000+0  24702-3 0  9997
2 56021  43.0023  58.8455 0001849 258.5565 101.5095 15.71382823  3881
STARLINK-5783           
1 56022U 23042AN  23105.30499646  .00054377  00000+0  41509-3 0  9995
2 56022  43.0023  63.4415 0001967 267.4574  92.6069 15.71372796  3429
STARLINK-5771           
1 56023U 23042AP  23106.06805837  .00004139  00000+0  34993-4 0  9994
2 56023  43.0022  58.8421 0001403 262.4997  97.5712 15.71354176  3884
STARLINK-5772           
1 56024U 23042AQ  23106.13099024  .00035690  00000+0  27418-3 0  9995
2 56024  43.0017  58.4534 0001169 271.6705  88.4029 15.71378385  3897
STARLINK-5766           
1 56025U 23042AR  23106.06795150 -.00005536  00000+0 -38795-4 0  9990
2 56025  43.0022  58.8411 0003218 307.3344  52.7230 15.71340215  3883
STARLINK-5770           
1 56026U 23042AS  23106.13119865  .00084247  00000+0  63775-3 0  9991
2 56026  43.0023  58.4553 0001700 247.6952 112.3736 15.71416992  3894
STARLINK-5777           
1 56027U 23042AT  23106.06784796  .00014800  00000+0  11611-3 0  9995
2 56027  43.0019  58.8399 0003092 304.9875  55.0703 15.71353087  3880
STARLINK-5779           
1 56028U 23042AU  23105.87652802  .00022744  00000+0  17631-3 0  9990
2 56028  43.0020  59.9870 0001441 265.3398  94.7306 15.71369144  3852
STARLINK-5774           
1 56029U 23042AV  23105.87684451  .00005446  00000+0  44944-4 0  9994
2 56029  43.0020  59.9878 0001683 272.1211  87.9464 15.71360259  3519
STARLINK-5781           
1 56030U 23042AW  23106.00355199  .00016131  00000+0  12622-3 0  9996
2 56030  43.0023  59.2195 0003519 297.4914  62.5596 15.71351063  3876
STARLINK-5785           
1 56031U 23042AX  23105.87663309  .00028285  00000+0  21821-3 0  9990
2 56031  43.0023  59.9861 0001504 283.5897  76.4803 15.71376821  3517
STARLINK-5786           
1 56032U 23042AY  23105.93967067  .00081656  00000+0  61916-3 0  9996
2 56032  43.0017  59.6009 0001325 230.5170 129.5581 15.71389512  3861
STARLINK-5784           
1 56033U 23042AZ  23105.87621500  .00052213  00000+0  40816-3 0  9992
2 56033  43.0019  59.9846 0002308  74.0677 286.0445 15.70820233  3510
STARLINK-5782           
1 56034U 23042BA  23105.36750561  .00061957  00000+0  47217-3 0  9994
2 56034  43.0019  63.0518 0002537 267.3368  92.7209 15.71365469  3438
STARLINK-5792           
1 56035U 23042BB  23105.66667824 -.00020856  00000+0 -15599-3 0  9990
2 56035  43.0027  61.2470 0001556 255.7605 356.9520 15.71355250  1302
STARLINK-5790           
1 56036U 23042BC  23105.30373368  .00074956  00000+0  56911-3 0  9990
2 56036  43.0021  63.4320 0002603 275.9799  84.0772 15.71386707  3421
STARLINK-5758           
1 56037U 23042BD  23105.30363231  .00052708  00000+0  40252-3 0  9991
2 56037  43.0023  63.4306 0001585 269.2147  90.8540 15.71374416  3421
